NORAD_CAT_ID,OBJECT_NAME,OBJECT_TYPE,EPOCH,MEAN_MOTION,ECCENTRICITY,INCLINATION,RA_OF_ASC_NODE,ARG_OF_PERICENTER,MEAN_ANOMALY,BSTAR,MEAN_MOTION_DOT,MEAN_MOTION_DDOT,TLE_LINE0,TLE_LINE1,TLE_LINE2,SEMIMAJOR_AXIS,PERIOD,APOGEE,PERIGEE,DECAYED
55408.0,STARLINK-5092,PAYLOAD,2024-01-17 21:05:48,14.98326559,0.0002735,69.9988,235.8423,264.8428,95.2419,1.8062e-05,1.23e-06,0.0,0 STARLINK-5092,1 55408U 23014T   24017.87903894  .00000123  00000-0  18062-4 0  9991,2 55408  69.9988 235.8423 0002735 264.8428  95.2419 14.98326559 54945,6950.204,96.107,573.969,570.168,0.0
55408.0,STARLINK-5092,PAYLOAD,2024-01-18 14:43:17,14.98329937,0.0002791,69.9988,233.9911,266.8528,93.2311,3.7572e-05,3.55e-06,0.0,0 STARLINK-5092,1 55408U 23014T   24018.61339710  .00000355  00000-0  37572-4 0  9998,2 55408  69.9988 233.9911 0002791 266.8528  93.2311 14.98329937 55056,6950.193,96.107,573.998,570.118,0.0
55408.0,STARLINK-5092,PAYLOAD,2024-01-18 19:31:41,14.9832993,0.0002791,69.9988,233.4864,266.8548,93.2292,3.6445e-05,3.42e-06,0.0,0 STARLINK-5092,1 55408U 23014T   24018.81367711  .00000342  00000-0  36445-4 0  9996,2 55408  69.9988 233.4864 0002791 266.8548  93.2292 14.98329930 54140,6950.193,96.107,573.998,570.118,0.0
55408.0,STARLINK-5092,PAYLOAD,2024-01-18 21:07:49,14.98330984,0.0002765,69.9988,233.3179,266.6404,93.4439,5.0061e-05,5.04e-06,0.0,0 STARLINK-5092,1 55408U 23014T   24018.88043601  .00000504  00000-0  50061-4 0  9992,2 55408  69.9988 233.3179 0002765 266.6404  93.4439 14.98330984 55099,6950.19,96.107,573.977,570.133,0.0
55408.0,STARLINK-5092,PAYLOAD,2024-01-19 14:45:18,14.98331772,0.0002727,69.9987,231.4669,266.0463,94.0384,2.5092e-05,2.06e-06,0.0,0 STARLINK-5092,1 55408U 23014T   24019.61479543  .00000206  00000-0  25092-4 0  9997,2 55408  69.9987 231.4669 0002727 266.0463  94.0384 14.98331772 55203,6950.187,96.107,573.948,570.157,0.0
55408.0,STARLINK-5092,PAYLOAD,2024-01-19 19:33:42,14.98331924,0.0002728,69.9988,230.9619,265.5998,94.4849,2.6012e-05,2.17e-06,0.0,0 STARLINK-5092,1 55408U 23014T   24019.81507493  .00000217  00000-0  26012-4 0  9990,2 55408  69.9988 230.9619 0002728 265.5998  94.4849 14.98331924 54298,6950.187,96.107,573.948,570.156,0.0
55408.0,STARLINK-5092,PAYLOAD,2024-01-19 22:45:58,14.98333059,0.0002695,69.9989,230.6252,265.6595,94.4256,3.9453e-05,3.78e-06,0.0,0 STARLINK-5092,1 55408U 23014T   24019.94859355  .00000378  00000-0  39453-4 0  9992,2 55408  69.9989 230.6252 0002695 265.6595  94.4256 14.98333059 55256,6950.183,96.107,573.922,570.175,0.0
55408.0,STARLINK-5092,PAYLOAD,2024-01-20 14:47:19,14.98331353,0.0002619,69.9989,228.9417,264.9334,95.1526,-1.1396e-05,-2.29e-06,0.0,0 STARLINK-5092,1 55408U 23014T   24020.61619469 -.00000229  00000-0 -11396-4 0  9991,2 55408  69.9989 228.9417 0002619 264.9334  95.1526 14.98331353 55352,6950.189,96.107,573.874,570.233,0.0
55408.0,STARLINK-5092,PAYLOAD,2024-01-20 19:35:43,14.98330637,0.0002642,69.9988,228.4366,262.4867,97.5992,-2.0253e-05,-3.35e-06,0.0,0 STARLINK-5092,1 55408U 23014T   24020.81647492 -.00000335  00000-0 -20253-4 0  9990,2 55408  69.9988 228.4366 0002642 262.4867  97.5992 14.98330637 54445,6950.191,96.107,573.892,570.22,0.0
55408.0,STARLINK-5092,PAYLOAD,2024-01-20 22:47:59,14.98329742,0.0002661,69.9988,228.1001,264.6693,95.4162,-3.1172e-05,-4.65e-06,0.0,0 STARLINK-5092,1 55408U 23014T   24020.94999584 -.00000465  00000-0 -31172-4 0  9992,2 55408  69.9988 228.1001 0002661 264.6693  95.4162 14.98329742 55408,6950.194,96.107,573.908,570.209,0.0
55408.0,STARLINK-5092,PAYLOAD,2024-01-21 19:37:44,14.98331941,0.0002736,69.9987,225.9116,265.192,94.8927,-2.5202e-05,-3.94e-06,0.0,0 STARLINK-5092,1 55408U 23014T   24021.81787298 -.00000394  00000-0 -25202-4 0  9994,2 55408  69.9987 225.9116 0002736 265.1920  94.8927 14.98331941 54596,6950.187,96.107,573.953,570.15,0.0
55408.0,STARLINK-5092,PAYLOAD,2024-01-21 22:50:00,14.98332641,0.0002721,69.9987,225.575,265.0276,95.0572,-1.581e-05,-2.82e-06,0.0,0 STARLINK-5092,1 55408U 23014T   24021.95139199 -.00000282  00000-0 -15810-4 0  9990,2 55408  69.9987 225.5750 0002721 265.0276  95.0572 14.98332641 55557,6950.185,96.107,573.941,570.159,0.0
55408.0,STARLINK-5092,PAYLOAD,2024-01-22 19:39:45,14.98327182,0.0002724,69.9987,223.3864,265.9835,94.1013,-1.0492e-05,-2.18e-06,0.0,0 STARLINK-5092,1 55408U 23014T   24022.81927526 -.00000218  00000-0 -10492-4 0  9995,2 55408  69.9987 223.3864 0002724 265.9835  94.1013 14.98327182 54746,6950.202,96.107,573.96,570.173,0.0
55408.0,STARLINK-5092,PAYLOAD,2024-01-22 22:52:01,14.98327541,0.0002729,69.9986,223.0496,266.9335,93.1511,-8.055e-06,-1.89e-06,0.0,0 STARLINK-5092,1 55408U 23014T   24022.95279508 -.00000189  00000-0 -80550-5 0  9990,2 55408  69.9986 223.0496 0002729 266.9335  93.1511 14.98327541 55702,6950.2,96.107,573.962,570.169,0.0
55408.0,STARLINK-5092,PAYLOAD,2024-01-23 06:52:41,14.98322488,0.0002709,69.9978,222.2081,277.4091,82.6761,0.0001157,1.287e-05,0.0,0 STARLINK-5092,1 55408U 23014T   24023.28659639  .00001287  00000-0  11570-3 0  9996,2 55408  69.9978 222.2081 0002709 277.4091  82.6761 14.98322488 55758,6950.216,96.107,573.964,570.198,0.0
55408.0,STARLINK-5092,PAYLOAD,2024-01-23 22:54:02,14.98334076,0.0003002,69.9979,220.5248,272.5887,87.4929,3.7055e-06,-4.9e-07,0.0,0 STARLINK-5092,1 55408U 23014T   24023.95418988 -.00000049  00000-0  37055-5 0  9994,2 55408  69.9979 220.5248 0003002 272.5887  87.4929 14.98334076 55857,6950.18,96.107,574.132,569.959,0.0
55408.0,STARLINK-5092,PAYLOAD,2024-01-24 02:06:18,14.98333709,0.0002875,69.9978,220.1881,270.3648,89.7182,2.8844e-05,2.51e-06,0.0,0 STARLINK-5092,1 55408U 23014T   24024.08770925  .00000251  00000-0  28844-4 0  9990,2 55408  69.9978 220.1881 0002875 270.3648  89.7182 14.98333709 54939,6950.181,96.107,574.045,570.048,0.0
55408.0,STARLINK-5092,PAYLOAD,2024-01-24 14:55:22,14.98329143,0.0002859,69.9979,218.8416,270.7972,89.2859,9.3722e-06,1.9e-07,0.0,0 STARLINK-5092,1 55408U 23014T   24024.62179250  .00000019  00000-0  93722-5 0  9994,2 55408  69.9979 218.8416 0002859 270.7972  89.2859 14.98329143 55950,6950.196,96.107,574.048,570.073,0.0
55408.0,STARLINK-5092,PAYLOAD,2024-01-24 21:19:55,14.98330787,0.0002883,69.9982,218.1682,273.1259,86.957,2.3959e-05,1.93e-06,0.0,0 STARLINK-5092,1 55408U 23014T   24024.88883105  .00000193  00000-0  23959-4 0  9990,2 55408  69.9982 218.1682 0002883 273.1259  86.9570 14.98330787 55998,6950.19,96.107,574.059,570.052,0.0
55408.0,STARLINK-5092,PAYLOAD,2024-01-25 03:44:27,14.98326796,0.0002875,69.9984,217.4946,272.6857,87.3973,7.4296e-05,7.94e-06,0.0,0 STARLINK-5092,1 55408U 23014T   24025.15587214  .00000794  00000-0  74296-4 0  9990,2 55408  69.9984 217.4946 0002875 272.6857  87.3973 14.98326796 55092,6950.203,96.107,574.066,570.07,0.0
55408.0,STARLINK-5092,PAYLOAD,2024-01-25 14:57:23,14.98326583,0.0002916,69.9985,216.3163,270.0644,90.018,-5.5039e-06,-1.59e-06,0.0,0 STARLINK-5092,1 55408U 23014T   24025.62319380 -.00000159  00000-0 -55039-5 0  9991,2 55408  69.9985 216.3163 0002916 270.0644  90.0180 14.98326583 56102,6950.203,96.107,574.095,570.042,0.0
55408.0,STARLINK-5092,PAYLOAD,2024-01-25 19:45:48,14.98296018,0.0002827,69.9986,215.8116,273.6723,86.4112,0.00051974,6.108e-05,0.0,0 STARLINK-5092,1 55408U 23014T   24025.82348075  .00006108  00000-0  51974-3 0  9996,2 55408  69.9986 215.8116 0002827 273.6723  86.4112 14.98296018 55194,6950.298,96.109,574.128,570.198,0.0
55408.0,STARLINK-5092,PAYLOAD,2024-01-25 21:21:56,14.98290872,0.0002797,69.9986,215.6432,274.3696,85.7144,0.00065749,7.753e-05,0.0,0 STARLINK-5092,1 55408U 23014T   24025.89024188  .00007753  00000-0  65749-3 0  9991,2 55408  69.9986 215.6432 0002797 274.3696  85.7144 14.98290872 56141,6950.314,96.11,574.123,570.235,0.0
55408.0,STARLINK-5092,PAYLOAD,2024-01-26 14:59:24,14.98330924,0.0002901,69.9987,213.7916,270.4453,89.6374,3.2245e-05,2.92e-06,0.0,0 STARLINK-5092,1 55408U 23014T   24026.62458906  .00000292  00000-0  32245-4 0  9999,2 55408  69.9987 213.7916 0002901 270.4453  89.6374 14.98330924 56256,6950.19,96.107,574.071,570.039,0.0
55408.0,STARLINK-5092,PAYLOAD,2024-01-26 19:47:48,14.98330407,0.0002947,69.9991,213.2865,273.209,86.8732,2.0502e-05,1.52e-06,0.0,0 STARLINK-5092,1 55408U 23014T   24026.82486963  .00000152  00000-0  20502-4 0  9993,2 55408  69.9991 213.2865 0002947 273.2090  86.8732 14.98330407 55349,6950.192,96.107,574.105,570.008,0.0
55408.0,STARLINK-5092,PAYLOAD,2024-01-27 13:25:17,14.9832582,0.0002743,69.9996,211.4361,276.3653,83.7194,2.9582e-05,2.6e-06,0.0,0 STARLINK-5092,1 55408U 23014T   24027.55923242  .00000260  00000-0  29582-4 0  9997,2 55408  69.9996 211.4361 0002743 276.3653  83.7194 14.98325820 56395,6950.206,96.107,573.977,570.164,0.0
55408.0,STARLINK-5092,PAYLOAD,2024-01-27 19:49:49,14.98327453,0.000269,70.0004,210.7645,269.8148,90.2703,-1.1866e-05,-2.35e-06,0.0,0 STARLINK-5092,1 55408U 23014T   24027.82627219 -.00000235  00000-0 -11866-4 0  9992,2 55408  70.0004 210.7645 0002690 269.8148  90.2703 14.98327453 55495,6950.201,96.107,573.935,570.196,0.0
55408.0,STARLINK-5092,PAYLOAD,2024-01-27 21:25:58,14.9832698,0.0002704,70.0003,210.5961,270.1845,89.9004,-1.7661e-05,-3.04e-06,0.0,0 STARLINK-5092,1 55408U 23014T   24027.89303268 -.00000304  00000-0 -17661-4 0  9990,2 55408  70.0003 210.5961 0002704 270.1845  89.9004 14.98326980 56447,6950.202,96.107,573.947,570.188,0.0
55408.0,STARLINK-5092,PAYLOAD,2024-01-28 15:03:26,14.98328913,0.0002727,70.0003,208.7437,267.2355,92.8492,-3.4084e-05,-5e-06,0.0,0 STARLINK-5092,1 55408U 23014T   24028.62739209 -.00000500  00000-0 -34084-4 0  9996,2 55408  70.0003 208.7437 0002727 267.2355  92.8492 14.98328913 56556,6950.196,96.107,573.957,570.166,0.0
55408.0,STARLINK-5092,PAYLOAD,2024-01-28 19:51:50,14.9832865,0.0002727,70.0003,208.2388,267.3279,92.7568,-3.3928e-05,-4.98e-06,0.0,0 STARLINK-5092,1 55408U 23014T   24028.82767237 -.00000498  00000-0 -33928-4 0  9992,2 55408  70.0003 208.2388 0002727 267.3279  92.7568 14.98328650 55642,6950.197,96.107,573.957,570.167,0.0
